<?xml version="1.0" encoding="UTF-8"?>
<kml xmlns="http://www.opengis.net/kml/2.2">
  <Document>
    <name>2020 Plan or Ward Heritage Guide Mention</name>
    <Style id="poly-1A237E-1200-77-nodesc-normal">
      <LineStyle>
        <color>ff7e231a</color>
        <width>1.2</width>
      </LineStyle>
      <PolyStyle>
        <color>4d7e231a</color>
        <fill>1</fill>
        <outline>1</outline>
      </PolyStyle>
      <BalloonStyle>
        <text><![CDATA[<h3>$[name]</h3>]]></text>
      </BalloonStyle>
    </Style>
    <Style id="poly-1A237E-1200-77-nodesc-highlight">
      <LineStyle>
        <color>ff7e231a</color>
        <width>1.8</width>
      </LineStyle>
      <PolyStyle>
        <color>4d7e231a</color>
        <fill>1</fill>
        <outline>1</outline>
      </PolyStyle>
      <BalloonStyle>
        <text><![CDATA[<h3>$[name]</h3>]]></text>
      </BalloonStyle>
    </Style>
    <StyleMap id="poly-1A237E-1200-77-nodesc">
      <Pair>
        <key>normal</key>
        <styleUrl>#poly-1A237E-1200-77-nodesc-normal</styleUrl>
      </Pair>
      <Pair>
        <key>highlight</key>
        <styleUrl>#poly-1A237E-1200-77-nodesc-highlight</styleUrl>
      </Pair>
    </StyleMap>
    <Style id="poly-3949AB-1200-77-nodesc-normal">
      <LineStyle>
        <color>ffab4939</color>
        <width>1.2</width>
      </LineStyle>
      <PolyStyle>
        <color>4dab4939</color>
        <fill>1</fill>
        <outline>1</outline>
      </PolyStyle>
      <BalloonStyle>
        <text><![CDATA[<h3>$[name]</h3>]]></text>
      </BalloonStyle>
    </Style>
    <Style id="poly-3949AB-1200-77-nodesc-highlight">
      <LineStyle>
        <color>ffab4939</color>
        <width>1.8</width>
      </LineStyle>
      <PolyStyle>
        <color>4dab4939</color>
        <fill>1</fill>
        <outline>1</outline>
      </PolyStyle>
      <BalloonStyle>
        <text><![CDATA[<h3>$[name]</h3>]]></text>
      </BalloonStyle>
    </Style>
    <StyleMap id="poly-3949AB-1200-77-nodesc">
      <Pair>
        <key>normal</key>
        <styleUrl>#poly-3949AB-1200-77-nodesc-normal</styleUrl>
      </Pair>
      <Pair>
        <key>highlight</key>
        <styleUrl>#poly-3949AB-1200-77-nodesc-highlight</styleUrl>
      </Pair>
    </StyleMap>
    <Placemark>
      <name>Northwest Rectangle</name>
      <styleUrl>#poly-1A237E-1200-77-nodesc</styleUrl>
      <Polygon>
        <outerBoundaryIs>
          <LinearRing>
            <tessellate>1</tessellate>
            <coordinates>
              -77.050138,38.897376,0
              -77.0500287,38.8922595,0
              -77.0396217,38.8922428,0
              -77.0396003,38.8973866,0
              -77.050138,38.897376,0
            </coordinates>
          </LinearRing>
        </outerBoundaryIs>
      </Polygon>
    </Placemark>
    <Placemark>
      <name>Judiciary Square</name>
      <styleUrl>#poly-1A237E-1200-77-nodesc</styleUrl>
      <Polygon>
        <outerBoundaryIs>
          <LinearRing>
            <tessellate>1</tessellate>
            <coordinates>
              -77.0197715,38.8998074,0
              -77.0197071,38.8922255,0
              -77.0153083,38.8921587,0
              -77.0153726,38.8998074,0
              -77.0197715,38.8998074,0
            </coordinates>
          </LinearRing>
        </outerBoundaryIs>
      </Polygon>
    </Placemark>
    <Placemark>
      <name>Columbia Heights</name>
      <styleUrl>#poly-3949AB-1200-77-nodesc</styleUrl>
      <Polygon>
        <outerBoundaryIs>
          <LinearRing>
            <tessellate>1</tessellate>
            <coordinates>
              -77.0364761,38.9374475,0
              -77.0364332,38.9291519,0
              -77.035532,38.9270987,0
              -77.0352316,38.9211724,0
              -77.0348668,38.9207217,0
              -77.0341158,38.9195698,0
              -77.0298886,38.9205047,0
              -77.0272923,38.9207718,0
              -77.0261121,38.9205714,0
              -77.0252967,38.9198035,0
              -77.0251679,38.9210055,0
              -77.0267987,38.9328408,0
              -77.0251465,38.9350441,0
              -77.033987,38.9373808,0
              -77.0364761,38.9374475,0
            </coordinates>
          </LinearRing>
        </outerBoundaryIs>
      </Polygon>
    </Placemark>
    <Placemark>
      <name>Lanier Heights</name>
      <styleUrl>#poly-1A237E-1200-77-nodesc</styleUrl>
      <Polygon>
        <outerBoundaryIs>
          <LinearRing>
            <tessellate>1</tessellate>
            <coordinates>
              -77.042687,38.922669,0
              -77.0369033,38.9262432,0
              -77.037712,38.927027,0
              -77.042599,38.927564,0
              -77.044412,38.926307,0
              -77.044731,38.924745,0
              -77.047154,38.924191,0
              -77.04731,38.923633,0
              -77.044115,38.923627,0
              -77.042687,38.922669,0
            </coordinates>
          </LinearRing>
        </outerBoundaryIs>
      </Polygon>
    </Placemark>
    <Placemark>
      <name>Congress Heights</name>
      <styleUrl>#poly-1A237E-1200-77-nodesc</styleUrl>
      <Polygon>
        <outerBoundaryIs>
          <LinearRing>
            <tessellate>1</tessellate>
            <coordinates>
              -77.0045355,38.8514201,0
              -77.0056942,38.8499495,0
              -77.0063379,38.8413261,0
              -77.0067671,38.8400225,0
              -77.0062092,38.8376826,0
              -77.0077541,38.8354429,0
              -77.0081404,38.8331697,0
              -77.0076683,38.8314981,0
              -77.0038488,38.8310635,0
              -77.0029905,38.8332365,0
              -77.0006731,38.8350751,0
              -77.0006731,38.8364457,0
              -76.9964674,38.8383845,0
              -76.9934204,38.8389194,0
              -76.9883993,38.8399222,0
              -76.982477,38.8416269,0
              -76.9833353,38.8430308,0
              -76.983507,38.8458051,0
              -76.992295,38.844189,0
              -76.996168,38.846491,0
              -76.996098,38.848448,0
              -76.999556,38.848515,0
              -77.0045355,38.8514201,0
            </coordinates>
          </LinearRing>
        </outerBoundaryIs>
      </Polygon>
    </Placemark>
  </Document>
</kml>
