<?xml version="1.0" encoding="UTF-8"?>
<kml xmlns="http://www.opengis.net/kml/2.2">
  <Document>
    <name>Community Considered Designation in the Past</name>
    <Style id="poly-1A237E-1200-77-nodesc-normal">
      <LineStyle>
        <color>ff7e231a</color>
        <width>1.2</width>
      </LineStyle>
      <PolyStyle>
        <color>4d7e231a</color>
        <fill>1</fill>
        <outline>1</outline>
      </PolyStyle>
      <BalloonStyle>
        <text><![CDATA[<h3>$[name]</h3>]]></text>
      </BalloonStyle>
    </Style>
    <Style id="poly-1A237E-1200-77-nodesc-highlight">
      <LineStyle>
        <color>ff7e231a</color>
        <width>1.8</width>
      </LineStyle>
      <PolyStyle>
        <color>4d7e231a</color>
        <fill>1</fill>
        <outline>1</outline>
      </PolyStyle>
      <BalloonStyle>
        <text><![CDATA[<h3>$[name]</h3>]]></text>
      </BalloonStyle>
    </Style>
    <StyleMap id="poly-1A237E-1200-77-nodesc">
      <Pair>
        <key>normal</key>
        <styleUrl>#poly-1A237E-1200-77-nodesc-normal</styleUrl>
      </Pair>
      <Pair>
        <key>highlight</key>
        <styleUrl>#poly-1A237E-1200-77-nodesc-highlight</styleUrl>
      </Pair>
    </StyleMap>
    <Style id="poly-3949AB-1200-77-nodesc-normal">
      <LineStyle>
        <color>ffab4939</color>
        <width>1.2</width>
      </LineStyle>
      <PolyStyle>
        <color>4dab4939</color>
        <fill>1</fill>
        <outline>1</outline>
      </PolyStyle>
      <BalloonStyle>
        <text><![CDATA[<h3>$[name]</h3>]]></text>
      </BalloonStyle>
    </Style>
    <Style id="poly-3949AB-1200-77-nodesc-highlight">
      <LineStyle>
        <color>ffab4939</color>
        <width>1.8</width>
      </LineStyle>
      <PolyStyle>
        <color>4dab4939</color>
        <fill>1</fill>
        <outline>1</outline>
      </PolyStyle>
      <BalloonStyle>
        <text><![CDATA[<h3>$[name]</h3>]]></text>
      </BalloonStyle>
    </Style>
    <StyleMap id="poly-3949AB-1200-77-nodesc">
      <Pair>
        <key>normal</key>
        <styleUrl>#poly-3949AB-1200-77-nodesc-normal</styleUrl>
      </Pair>
      <Pair>
        <key>highlight</key>
        <styleUrl>#poly-3949AB-1200-77-nodesc-highlight</styleUrl>
      </Pair>
    </StyleMap>
    <Placemark>
      <name>Brookland</name>
      <styleUrl>#poly-1A237E-1200-77-nodesc</styleUrl>
      <Polygon>
        <outerBoundaryIs>
          <LinearRing>
            <tessellate>1</tessellate>
            <coordinates>
              -76.9966292,38.9211724,0
              -76.9854927,38.9244945,0
              -76.9717598,38.9313052,0
              -76.9831753,38.9425213,0
              -76.985836,38.9425213,0
              -76.99193,38.9372472,0
              -76.9928741,38.9352444,0
              -76.9947624,38.9337755,0
              -76.9941401,38.9317558,0
              -76.9945264,38.9255629,0
              -76.9966292,38.9211724,0
            </coordinates>
          </LinearRing>
        </outerBoundaryIs>
      </Polygon>
    </Placemark>
    <Placemark>
      <name>Eckington</name>
      <styleUrl>#poly-3949AB-1200-77-nodesc</styleUrl>
      <Polygon>
        <outerBoundaryIs>
          <LinearRing>
            <tessellate>1</tessellate>
            <coordinates>
              -77.0089245,38.9168151,0
              -77.0089889,38.9107544,0
              -77.0046329,38.9089011,0
              -77.0025086,38.9096691,0
              -76.9966292,38.9211724,0
              -77.0089245,38.9168151,0
            </coordinates>
          </LinearRing>
        </outerBoundaryIs>
      </Polygon>
    </Placemark>
    <Placemark>
      <name>Chevy Chase</name>
      <styleUrl>#poly-1A237E-1200-77-nodesc</styleUrl>
      <Polygon>
        <outerBoundaryIs>
          <LinearRing>
            <tessellate>1</tessellate>
            <coordinates>
              -77.0771183,38.9675128,0
              -77.0801652,38.9649768,0
              -77.080294,38.9570682,0
              -77.0710672,38.9570682,0
              -77.0722259,38.9590705,0
              -77.0710243,38.9590705,0
              -77.0710243,38.9597045,0
              -77.0702947,38.9614397,0
              -77.0720113,38.9614731,0
              -77.0725692,38.9625743,0
              -77.0713676,38.9625409,0
              -77.0713676,38.9630748,0
              -77.0705093,38.9630415,0
              -77.0708955,38.9654106,0
              -77.073685,38.9681801,0
              -77.0749725,38.9681801,0
              -77.0749725,38.9688141,0
              -77.0756591,38.9688141,0
              -77.0771183,38.9675128,0
            </coordinates>
          </LinearRing>
        </outerBoundaryIs>
      </Polygon>
    </Placemark>
  </Document>
</kml>
