<?xml version="1.0" encoding="UTF-8"?>
<kml xmlns="http://www.opengis.net/kml/2.2">
  <Document>
    <name>Currently Pending Applications</name>
    <Style id="poly-A52714-1200-77-nodesc-normal">
      <LineStyle>
        <color>ff1427a5</color>
        <width>1.2</width>
      </LineStyle>
      <PolyStyle>
        <color>4d1427a5</color>
        <fill>1</fill>
        <outline>1</outline>
      </PolyStyle>
      <BalloonStyle>
        <text><![CDATA[<h3>$[name]</h3>]]></text>
      </BalloonStyle>
    </Style>
    <Style id="poly-A52714-1200-77-nodesc-highlight">
      <LineStyle>
        <color>ff1427a5</color>
        <width>1.8</width>
      </LineStyle>
      <PolyStyle>
        <color>4d1427a5</color>
        <fill>1</fill>
        <outline>1</outline>
      </PolyStyle>
      <BalloonStyle>
        <text><![CDATA[<h3>$[name]</h3>]]></text>
      </BalloonStyle>
    </Style>
    <StyleMap id="poly-A52714-1200-77-nodesc">
      <Pair>
        <key>normal</key>
        <styleUrl>#poly-A52714-1200-77-nodesc-normal</styleUrl>
      </Pair>
      <Pair>
        <key>highlight</key>
        <styleUrl>#poly-A52714-1200-77-nodesc-highlight</styleUrl>
      </Pair>
    </StyleMap>
    <Placemark>
      <name>Downtown/H St. Expansion</name>
      <styleUrl>#poly-A52714-1200-77-nodesc</styleUrl>
      <Polygon>
        <outerBoundaryIs>
          <LinearRing>
            <tessellate>1</tessellate>
            <coordinates>
              -77.0229363,38.8998256,0
              -77.0228827,38.9008776,0
              -77.0239663,38.900886,0
              -77.023977,38.8998256,0
              -77.0229363,38.8998256,0
            </coordinates>
          </LinearRing>
        </outerBoundaryIs>
      </Polygon>
    </Placemark>
    <Placemark>
      <name>Downtown/H St. Expansion</name>
      <styleUrl>#poly-A52714-1200-77-nodesc</styleUrl>
      <Polygon>
        <outerBoundaryIs>
          <LinearRing>
            <tessellate>1</tessellate>
            <coordinates>
              -77.0209515,38.9003182,0
              -77.0209515,38.8993747,0
              -77.0205224,38.899383,0
              -77.0205009,38.8998089,0
              -77.0199108,38.8998172,0
              -77.0199323,38.9005603,0
              -77.0204043,38.9005269,0
              -77.0204151,38.9003265,0
              -77.0209515,38.9003182,0
            </coordinates>
          </LinearRing>
        </outerBoundaryIs>
      </Polygon>
    </Placemark>
    <Placemark>
      <name>Downtown/H St. Expansion</name>
      <styleUrl>#poly-A52714-1200-77-nodesc</styleUrl>
      <Polygon>
        <outerBoundaryIs>
          <LinearRing>
            <tessellate>1</tessellate>
            <coordinates>
              -77.02034,38.8994498,0
              -77.0203185,38.8992244,0
              -77.019546,38.8992411,0
              -77.0195675,38.8994749,0
              -77.02034,38.8994498,0
            </coordinates>
          </LinearRing>
        </outerBoundaryIs>
      </Polygon>
    </Placemark>
    <Placemark>
      <name>U St. Expansion</name>
      <styleUrl>#poly-A52714-1200-77-nodesc</styleUrl>
      <Polygon>
        <outerBoundaryIs>
          <LinearRing>
            <tessellate>1</tessellate>
            <coordinates>
              -77.0212948,38.9155588,0
              -77.0212841,38.9148534,0
              -77.0216167,38.9148492,0
              -77.0216006,38.9140728,0
              -77.0210373,38.9140812,0
              -77.0210534,38.9146822,0
              -77.0208979,38.9146989,0
              -77.0208871,38.9155629,0
              -77.0207047,38.9157215,0
              -77.0211446,38.9159052,0
              -77.0212948,38.9155588,0
            </coordinates>
          </LinearRing>
        </outerBoundaryIs>
      </Polygon>
    </Placemark>
    <Placemark>
      <name>Barney Circle</name>
      <styleUrl>#poly-A52714-1200-77-nodesc</styleUrl>
      <Polygon>
        <outerBoundaryIs>
          <LinearRing>
            <tessellate>1</tessellate>
            <coordinates>
              -76.9808042,38.8822557,0
              -76.983186,38.8813036,0
              -76.9817269,38.8795413,0
              -76.9819951,38.8789901,0
              -76.9815338,38.8788064,0
              -76.9813192,38.8791321,0
              -76.9807184,38.8792741,0
              -76.9808042,38.8822557,0
            </coordinates>
          </LinearRing>
        </outerBoundaryIs>
      </Polygon>
    </Placemark>
    <Placemark>
      <name>Park View</name>
      <styleUrl>#poly-A52714-1200-77-nodesc</styleUrl>
      <Polygon>
        <outerBoundaryIs>
          <LinearRing>
            <tessellate>1</tessellate>
            <coordinates>
              -77.0252265,38.9359896,0
              -77.02491,38.935877,0
              -77.0245506,38.935927,0
              -77.0243789,38.9358478,0
              -77.0242341,38.9358603,0
              -77.024218,38.9357643,0
              -77.0238586,38.9358227,0
              -77.0237996,38.9355265,0
              -77.0216109,38.9358853,0
              -77.0215358,38.9355557,0
              -77.0223834,38.9354305,0
              -77.0222332,38.9346919,0
              -77.0218791,38.9347921,0
              -77.0217504,38.9343164,0
              -77.0218684,38.9342788,0
              -77.0217611,38.9338281,0
              -77.0207848,38.9339784,0
              -77.021053,38.9349423,0
              -77.0211871,38.9355974,0
              -77.0207365,38.9356516,0
              -77.0207901,38.9360439,0
              -77.0196422,38.9361774,0
              -77.0196314,38.9358269,0
              -77.0191969,38.9358603,0
              -77.0192023,38.9369702,0
              -77.0190306,38.9373958,0
              -77.0196851,38.9372456,0
              -77.0213749,38.9370245,0
              -77.025189,38.9361065,0
              -77.0252265,38.9359896,0
            </coordinates>
          </LinearRing>
        </outerBoundaryIs>
      </Polygon>
    </Placemark>
  </Document>
</kml>
