<?xml version="1.0" encoding="UTF-8"?>
<kml xmlns="http://www.opengis.net/kml/2.2">
  <Document>
    <name>Current Conversations</name>
    <Style id="poly-1A237E-1200-77-nodesc-normal">
      <LineStyle>
        <color>ff7e231a</color>
        <width>1.2</width>
      </LineStyle>
      <PolyStyle>
        <color>4d7e231a</color>
        <fill>1</fill>
        <outline>1</outline>
      </PolyStyle>
      <BalloonStyle>
        <text><![CDATA[<h3>$[name]</h3>]]></text>
      </BalloonStyle>
    </Style>
    <Style id="poly-1A237E-1200-77-nodesc-highlight">
      <LineStyle>
        <color>ff7e231a</color>
        <width>1.8</width>
      </LineStyle>
      <PolyStyle>
        <color>4d7e231a</color>
        <fill>1</fill>
        <outline>1</outline>
      </PolyStyle>
      <BalloonStyle>
        <text><![CDATA[<h3>$[name]</h3>]]></text>
      </BalloonStyle>
    </Style>
    <StyleMap id="poly-1A237E-1200-77-nodesc">
      <Pair>
        <key>normal</key>
        <styleUrl>#poly-1A237E-1200-77-nodesc-normal</styleUrl>
      </Pair>
      <Pair>
        <key>highlight</key>
        <styleUrl>#poly-1A237E-1200-77-nodesc-highlight</styleUrl>
      </Pair>
    </StyleMap>
    <Style id="poly-3949AB-1200-77-nodesc-normal">
      <LineStyle>
        <color>ffab4939</color>
        <width>1.2</width>
      </LineStyle>
      <PolyStyle>
        <color>4dab4939</color>
        <fill>1</fill>
        <outline>1</outline>
      </PolyStyle>
      <BalloonStyle>
        <text><![CDATA[<h3>$[name]</h3>]]></text>
      </BalloonStyle>
    </Style>
    <Style id="poly-3949AB-1200-77-nodesc-highlight">
      <LineStyle>
        <color>ffab4939</color>
        <width>1.8</width>
      </LineStyle>
      <PolyStyle>
        <color>4dab4939</color>
        <fill>1</fill>
        <outline>1</outline>
      </PolyStyle>
      <BalloonStyle>
        <text><![CDATA[<h3>$[name]</h3>]]></text>
      </BalloonStyle>
    </Style>
    <StyleMap id="poly-3949AB-1200-77-nodesc">
      <Pair>
        <key>normal</key>
        <styleUrl>#poly-3949AB-1200-77-nodesc-normal</styleUrl>
      </Pair>
      <Pair>
        <key>highlight</key>
        <styleUrl>#poly-3949AB-1200-77-nodesc-highlight</styleUrl>
      </Pair>
    </StyleMap>
    <Placemark>
      <name>Bloomingdale/LeDroit Expansion</name>
      <styleUrl>#poly-3949AB-1200-77-nodesc</styleUrl>
      <Polygon>
        <outerBoundaryIs>
          <LinearRing>
            <tessellate>1</tessellate>
            <coordinates>
              -77.014246,38.9149619,0
              -77.0168424,38.9141438,0
              -77.0140314,38.9128749,0
              -77.014246,38.9149619,0
            </coordinates>
          </LinearRing>
        </outerBoundaryIs>
      </Polygon>
    </Placemark>
    <Placemark>
      <name>Burleith</name>
      <styleUrl>#poly-3949AB-1200-77-nodesc</styleUrl>
      <Polygon>
        <outerBoundaryIs>
          <LinearRing>
            <tessellate>1</tessellate>
            <coordinates>
              -77.0694351,38.9166315,0
              -77.0705295,38.9166148,0
              -77.071538,38.9163309,0
              -77.0727611,38.916548,0
              -77.0752287,38.9164645,0
              -77.0752287,38.9168151,0
              -77.0757437,38.9168318,0
              -77.0757866,38.9173827,0
              -77.0817518,38.9174829,0
              -77.0806146,38.9149953,0
              -77.0794773,38.9141772,0
              -77.0790267,38.9126912,0
              -77.0747566,38.9126078,0
              -77.0692849,38.9126411,0
              -77.0694351,38.9166315,0
            </coordinates>
          </LinearRing>
        </outerBoundaryIs>
      </Polygon>
    </Placemark>
    <Placemark>
      <name>Old Southwest</name>
      <styleUrl>#poly-1A237E-1200-77-nodesc</styleUrl>
      <Polygon>
        <outerBoundaryIs>
          <LinearRing>
            <tessellate>1</tessellate>
            <coordinates>
              -77.0136237,38.8707377,0
              -77.010684,38.870721,0
              -77.0106411,38.8746469,0
              -77.0091391,38.8746636,0
              -77.0091391,38.8763508,0
              -77.0121431,38.8763007,0
              -77.0121431,38.87458,0
              -77.0126367,38.87458,0
              -77.0136881,38.8723415,0
              -77.0136237,38.8707377,0
            </coordinates>
          </LinearRing>
        </outerBoundaryIs>
      </Polygon>
    </Placemark>
    <Placemark>
      <name>Trinidad</name>
      <styleUrl>#poly-1A237E-1200-77-nodesc</styleUrl>
      <Polygon>
        <outerBoundaryIs>
          <LinearRing>
            <tessellate>1</tessellate>
            <coordinates>
              -76.993196,38.9040253,0
              -76.9843984,38.9002514,0
              -76.9833899,38.9001345,0
              -76.9786906,38.907248,0
              -76.9835186,38.9096691,0
              -76.985836,38.9105374,0
              -76.993196,38.9040253,0
            </coordinates>
          </LinearRing>
        </outerBoundaryIs>
      </Polygon>
    </Placemark>
  </Document>
</kml>
