<?xml version="1.0" encoding="UTF-8"?>
<kml xmlns="http://www.opengis.net/kml/2.2">
  <Document>
    <name>DCPL Endangered Places List</name>
    <Style id="poly-3949AB-1200-77-nodesc-normal">
      <LineStyle>
        <color>ffab4939</color>
        <width>1.2</width>
      </LineStyle>
      <PolyStyle>
        <color>4dab4939</color>
        <fill>1</fill>
        <outline>1</outline>
      </PolyStyle>
      <BalloonStyle>
        <text><![CDATA[<h3>$[name]</h3>]]></text>
      </BalloonStyle>
    </Style>
    <Style id="poly-3949AB-1200-77-nodesc-highlight">
      <LineStyle>
        <color>ffab4939</color>
        <width>1.8</width>
      </LineStyle>
      <PolyStyle>
        <color>4dab4939</color>
        <fill>1</fill>
        <outline>1</outline>
      </PolyStyle>
      <BalloonStyle>
        <text><![CDATA[<h3>$[name]</h3>]]></text>
      </BalloonStyle>
    </Style>
    <StyleMap id="poly-3949AB-1200-77-nodesc">
      <Pair>
        <key>normal</key>
        <styleUrl>#poly-3949AB-1200-77-nodesc-normal</styleUrl>
      </Pair>
      <Pair>
        <key>highlight</key>
        <styleUrl>#poly-3949AB-1200-77-nodesc-highlight</styleUrl>
      </Pair>
    </StyleMap>
    <Placemark>
      <name>Hill East</name>
      <styleUrl>#poly-3949AB-1200-77-nodesc</styleUrl>
      <Polygon>
        <outerBoundaryIs>
          <LinearRing>
            <tessellate>1</tessellate>
            <coordinates>
              -76.9854927,38.8898303,0
              -76.9854712,38.8867237,0
              -76.9883466,38.885922,0
              -76.9883037,38.8815792,0
              -76.9804502,38.8784389,0
              -76.9798923,38.877921,0
              -76.9736052,38.8796082,0
              -76.9676614,38.8897134,0
              -76.970129,38.8903982,0
              -76.9718242,38.8918846,0
              -76.9730258,38.8919347,0
              -76.9739056,38.8912499,0
              -76.9739699,38.8898136,0
              -76.9854927,38.8898303,0
            </coordinates>
          </LinearRing>
        </outerBoundaryIs>
      </Polygon>
    </Placemark>
    <Placemark>
      <name>Southwest</name>
      <styleUrl>#poly-3949AB-1200-77-nodesc</styleUrl>
      <Polygon>
        <outerBoundaryIs>
          <LinearRing>
            <tessellate>1</tessellate>
            <coordinates>
              -77.0090318,38.8720074,0
              -77.0092678,38.8823476,0
              -77.0091391,38.8875589,0
              -77.0319486,38.8876591,0
              -77.0322704,38.8830992,0
              -77.0284295,38.8817462,0
              -77.0222926,38.8773865,0
              -77.0194387,38.8720074,0
              -77.0090318,38.8720074,0
            </coordinates>
          </LinearRing>
        </outerBoundaryIs>
      </Polygon>
    </Placemark>
  </Document>
</kml>
